CCSDS_OMM_VERS,COMMENT,CREATION_DATE,ORIGINATOR,OBJECT_NAME,OBJECT_ID,CENTER_NAME,REF_FRAME,TIME_SYSTEM,MEAN_ELEMENT_THEORY,EPOCH,MEAN_MOTION,ECCENTRICITY,INCLINATION,RA_OF_ASC_NODE,ARG_OF_PERICENTER,MEAN_ANOMALY,EPHEMERIS_TYPE,CLASSIFICATION_TYPE,NORAD_CAT_ID,ELEMENT_SET_NO,REV_AT_EPOCH,BSTAR,MEAN_MOTION_DOT,MEAN_MOTION_DDOT,SEMIMAJOR_AXIS,PERIOD,APOAPSIS,PERIAPSIS,OBJECT_TYPE,RCS_SIZE,COUNTRY_CODE,LAUNCH_DATE,SITE,DECAY_DATE,FILE,GP_ID,TLE_LINE0,TLE_LINE1,TLE_LINE2,NORAD_KEY,JCAT,DeepCat,Satcat,Piece,Active,Type,Name,LDate,Parent,Owner,State,SDate,ExpandedStatus,DDate,ODate,Period,Perigee,PF,Apogee,AF,Inc,IF,OpOrbit,SATCAT_KEY
3.0,GENERATED VIA SPACE-TRACK.ORG API,2026-05-06T10:08:52,18 SPCS,LUCH 5A,2011-074B,EARTH,TEME,UTC,SGP4,2026-05-06T03:18:38.847168,1.00274555,0.00027282,8.6483,74.4136,320.6715,45.5719,0,U,37951,999,5263,0.00000000000000,-0.00000040,0.0000000000000,42163.955,1436.057,35797.323,35774.317,PAYLOAD,LARGE,CIS,2011-12-11,TTMTR,,5176958,322271693,0 LUCH 5A,1 37951U 11074B   26126.13794962 -.00000040  00000-0  00000-0 0  9991,2 37951   8.6483  74.4136 0002728 320.6715  45.5719  1.00274555 52630,37951,S37951,-,37951,2011-074B,A,P,Luch-5A,2011 Dec 11,S37950,RESH,RU,2011 Dec 11 2011,In Earth orbit,-,2026 May  5 ,    1436.058 ,   35774, ,   35797, ,  8.65 , ,GEO/I,37951
3.0,GENERATED VIA SPACE-TRACK.ORG API,2026-05-06T14:46:56,18 SPCS,RADUGA 14,1984-016A,EARTH,TEME,UTC,SGP4,2026-05-06T13:37:55.417728,1.00298896,0.0001558,8.651,311.097,138.5793,56.1563,0,U,14725,999,11768,0.00000000000000,-0.00000121,0.0000000000000,42157.133,1435.709,35785.567,35772.43,PAYLOAD,MEDIUM,CIS,1984-02-15,TTMTR,,5177265,322300174,0 RADUGA 14,1 14725U 84016A   26126.56800252 -.00000121  00000-0  00000+0 0  9997,2 14725   8.6510 311.0970 0001558 138.5793  56.1563  1.00298896117689,14725,S14725,-,14725,1984-016A,P,P,Raduga,1984 Feb 15,S17874,VVKOV,SU,1984 Feb 15 1522?,In Earth orbit,-,2026 May  5 ,    1435.708 ,   35772, ,   35785, ,  8.65 , ,GEO/I,14725
3.0,GENERATED VIA SPACE-TRACK.ORG API,2026-05-06T14:56:52,18 SPCS,ECHOSTAR 8,2002-039A,EARTH,TEME,UTC,SGP4,2026-05-06T12:30:37.233792,0.98508494,0.0009864,8.7186,62.2623,32.6147,227.6362,0,U,27501,999,5164,0.00000000000000,-0.00000007,0.0000000000000,42666.405,1461.803,36330.356,36246.184,PAYLOAD,LARGE,US,2002-08-22,TTMTR,,5177612,322308133,0 ECHOSTAR 8,1 27501U 02039A   26126.52126428 -.00000007  00000-0  00000+0 0  9993,2 27501   8.7186  62.2623 0009864  32.6147 227.6362  0.98508494 51649,27501,S27501,-,27501,2002-039A,P,P,Echostar VIII,2002 Aug 22,S27504,ECHOC,US,2002 Aug 22 1150,In Earth orbit,-,2026 May  5 ,    1461.798 ,   36246, ,   36330, ,  8.72 , ,GEO/ID,27501
3.0,GENERATED VIA SPACE-TRACK.ORG API,2026-05-06T14:46:56,18 SPCS,AMOS 5,2011-074A,EARTH,TEME,UTC,SGP4,2026-05-06T11:28:20.348256,1.00173295,0.0003044,8.7218,61.2009,2.7948,65.4517,0,U,37950,999,5258,0.00000000000000,-0.00000229,0.0000000000000,42192.365,1437.509,35827.073,35801.387,PAYLOAD,LARGE,ISRA,2011-12-11,TTMTR,,5177122,322296839,0 AMOS 5,1 37950U 11074A   26126.47801329 -.00000229  00000-0  00000+0 0  9991,2 37950   8.7218  61.2009 0003044   2.7948  65.4517  1.00173295 52587,37950,S37950,-,37950,2011-074A,P,P,Amos 5,2011 Dec 11,S37952,IAIS,IL,2011 Dec 11 2052,In Earth orbit,-,2026 May  5 ,    1437.502 ,   35801, ,   35827, ,  8.72 , ,GEO/ID,37950
3.0,GENERATED VIA SPACE-TRACK.ORG API,2026-05-06T10:08:52,18 SPCS,INSAT 3A,2003-013A,EARTH,TEME,UTC,SGP4,2026-05-06T00:09:38.687328,0.99804225,0.00112713,8.7302,61.4587,327.06,230.9922,0,U,27714,999,8430,0.00000000000000,0.00000122,0.0000000000000,42296.317,1442.825,35965.856,35870.509,PAYLOAD,LARGE,IND,2003-04-09,FRGUI,,5176958,322266799,0 INSAT 3A,1 27714U 03013A   26126.00669777  .00000122  00000-0  00000-0 0  9992,2 27714   8.7302  61.4587 0011271 327.0600 230.9922  0.99804225 84305,27714,S27714,-,27714,2003-013A,P,P,Insat 3A,2003 Apr  9,S27717,ISRO,IN,2003 Apr  9 2319,In Earth orbit,-,2026 May  5 ,    1442.831 ,   35870, ,   35966, ,  8.73 , ,GEO/ID,27714
3.0,GENERATED VIA SPACE-TRACK.ORG API,2026-05-06T14:56:52,18 SPCS,XM-1,2001-018A,EARTH,TEME,UTC,SGP4,2026-05-06T07:55:38.503200,0.99005617,0.0011987,8.741,62.1836,324.4599,254.0795,0,U,26761,999,4570,0.00000000000000,-0.00000150,0.0000000000000,42523.462,1454.463,36196.3,36094.354,PAYLOAD,LARGE,US,2001-05-08,SEAL,,5177598,322307905,0 XM-1,1 26761U 01018A   26126.33030675 -.00000150  00000-0  00000+0 0  9992,2 26761   8.7410  62.1836 0011987 324.4599 254.0795  0.99005617 45707,26761,S26761,-,26761,2001-018A,P,P,XM-1,2001 May  8,S26762,XMRS,US,2001 May  8 2223,In Earth orbit,-,2026 May  5 ,    1454.457 ,   36093, ,   36196, ,  8.74 , ,GEO/ID,26761
3.0,GENERATED VIA SPACE-TRACK.ORG API,2026-05-06T10:08:52,18 SPCS,TDRS 1,1983-026B,EARTH,TEME,UTC,SGP4,2026-05-06T04:43:25.172832,0.98743917,0.00189337,8.7426,320.6136,269.4912,93.9317,0,U,13969,999,12995,0.00000000000000,-0.00000057,0.0000000000000,42598.562,1458.318,36301.082,36139.772,PAYLOAD,LARGE,US,1983-04-04,AFETR,,5176958,322262728,0 TDRS 1,1 13969U 83026B   26126.19681913 -.00000057  00000-0  00000-0 0  9995,2 13969   8.7426 320.6136 0018934 269.4912  93.9317  0.98743917129952,13969,S13969,-,13969,1983-026B,P,P ---S-,TDRS 1,1983 Apr  4,S13970,GSFC,US,1983 Apr  5 1100?,In Earth orbit,-,2026 May  5 ,    1458.324 ,   36139, ,   36301, ,  8.74 , ,GEO/ID,13969
3.0,GENERATED VIA SPACE-TRACK.ORG API,2026-05-06T10:08:52,18 SPCS,PALAPA 2,1977-018A,EARTH,TEME,UTC,SGP4,2026-05-06T03:04:03.031104,1.00035409,0.00041907,8.7456,310.5896,110.9183,249.6224,0,U,9862,999,14268,0.00000000000000,0.00000139,0.0000000000000,42231.127,1439.49,35870.69,35835.295,PAYLOAD,LARGE,INDO,1977-03-10,AFETR,,5176958,322261112,0 PALAPA 2,1 09862U 77018A   26126.12781286  .00000139  00000-0  00000-0 0  9993,2 09862   8.7456 310.5896 0004191 110.9183 249.6224  1.00035409142689,9862,S09862,-,09862,1977-018A,P,P,Palapa A2,1977 Mar 10,S09864,TELK,ID,1977 Mar 10 2341,In Earth orbit,-,2026 May  5 ,    1439.497 ,   35835, ,   35870, ,  8.75 , ,GEO/ID,9862
3.0,GENERATED VIA SPACE-TRACK.ORG API,2026-05-06T10:08:52,18 SPCS,PALAPA 2,1977-018A,EARTH,TEME,UTC,SGP4,2026-05-06T03:04:03.031104,1.00035409,0.00041907,8.7456,310.5896,110.9183,249.6224,0,U,9862,999,14268,0.00000000000000,0.00000139,0.0000000000000,42231.127,1439.49,35870.69,35835.295,PAYLOAD,LARGE,INDO,1977-03-10,AFETR,,5176958,322261112,0 PALAPA 2,1 09862U 77018A   26126.12781286  .00000139  00000-0  00000-0 0  9993,2 09862   8.7456 310.5896 0004191 110.9183 249.6224  1.00035409142689,9862,A02801,-,09862,1977-018,C,C AM,FW-5,1977 Mar 10,S09862,TELK,ID,1977 Mar 12 0300?,Attached to S09862 Palapa A2,-,-,-,-,-,-,-,-,-,-,9862
3.0,GENERATED VIA SPACE-TRACK.ORG API,2026-05-06T14:46:56,18 SPCS,COSMOS 2479,2012-012A,EARTH,TEME,UTC,SGP4,2026-05-06T11:34:56.558784,1.00367808,0.0005663,8.7576,56.76,246.4864,127.4213,0,U,38101,999,5167,0.00000000000000,0.00000155,0.0000000000000,42137.835,1434.723,35783.562,35735.837,PAYLOAD,LARGE,CIS,2012-03-30,TTMTR,,5177124,322296365,0 COSMOS 2479,1 38101U 12012A   26126.48259906  .00000155  00000-0  00000+0 0  9999,2 38101   8.7576  56.7600 0005663 246.4864 127.4213  1.00367808 51678,38101,S38101,-,38101,2012-012A,P,P,Kosmos-2479,2012 Mar 30,S38104,PVO,RU,2012 Mar 30 1227,In Earth orbit,-,2026 May  5 ,    1434.733 ,   35735, ,   35783, ,  8.75 , ,GEO/ID,38101
3.0,GENERATED VIA SPACE-TRACK.ORG API,2026-05-06T14:56:52,18 SPCS,THURAYA 2,2003-026A,EARTH,TEME,UTC,SGP4,2026-05-06T08:12:38.647872,1.00274339,0.0003506,8.7783,32.1506,347.3821,11.8485,0,U,27825,999,8392,0.00000000000000,0.00000132,0.0000000000000,42164.016,1436.06,35800.664,35771.098,PAYLOAD,LARGE,UAE,2003-06-10,SEAL,,5177622,322308253,0 THURAYA 2,1 27825U 03026A   26126.34211398  .00000132  00000-0  00000+0 0  9998,2 27825   8.7783  32.1506 0003506 347.3821  11.8485  1.00274339 83926,27825,S27825,-,27825,2003-026A,A,P,Thuraya 2,2003 Jun 10,S27826,THURY,UAE,2003 Jun 10 1535,In Earth orbit,-,2026 May  4 ,    1436.070 ,   35771, ,   35800, ,  8.78 , ,GEO/I,27825
3.0,GENERATED VIA SPACE-TRACK.ORG API,2026-05-06T10:08:52,18 SPCS,ESIAFI 1 (COMSTAR 4),1981-018A,EARTH,TEME,UTC,SGP4,2026-05-06T01:11:20.862528,1.00268269,0.00040205,8.7833,311.4949,76.3657,283.5944,0,U,12309,999,16702,0.00000000000000,-0.00000044,0.0000000000000,42165.718,1436.147,35804.535,35770.63,PAYLOAD,LARGE,US,1981-02-21,AFETR,,5176958,322261448,0 ESIAFI 1 (COMSTAR 4),1 12309U 81018A   26126.04954702 -.00000044  00000-0  00000-0 0  9990,2 12309   8.7833 311.4949 0004020  76.3657 283.5944  1.00268269167022,12309,S12309,-,12309,1981-018A,P,P,Esiafi 1,1981 Feb 21,S12363,TONG,TO,1981 Feb 21 2351,In Earth orbit,-,2026 May  5 ,    1436.147 ,   35770, ,   35804, ,  8.79 , ,GEO/I,12309
3.0,GENERATED VIA SPACE-TRACK.ORG API,2026-05-06T10:08:52,18 SPCS,ESIAFI 1 (COMSTAR 4),1981-018A,EARTH,TEME,UTC,SGP4,2026-05-06T01:11:20.862528,1.00268269,0.00040205,8.7833,311.4949,76.3657,283.5944,0,U,12309,999,16702,0.00000000000000,-0.00000044,0.0000000000000,42165.718,1436.147,35804.535,35770.63,PAYLOAD,LARGE,US,1981-02-21,AFETR,,5176958,322261448,0 ESIAFI 1 (COMSTAR 4),1 12309U 81018A   26126.04954702 -.00000044  00000-0  00000-0 0  9990,2 12309   8.7833 311.4949 0004020  76.3657 283.5944  1.00268269167022,12309,A03286,-,12309,1981-018,C,C AM,SVM-4A,1981 Feb 21,S12309,IGC,US,1981 Feb 24 2136?,Attached to S12309 Comstar 204,-,-,-,-,-,-,-,-,-,-,12309
3.0,GENERATED VIA SPACE-TRACK.ORG API,2026-05-06T14:46:56,18 SPCS,RADUGA 15,1984-063A,EARTH,TEME,UTC,SGP4,2026-05-06T13:41:39.846048,1.00165527,0.0001905,8.8111,312.0831,230.387,329.3086,0,U,15057,999,14068,0.00000000000000,-0.00000139,0.0000000000000,42194.546,1437.62,35824.449,35808.373,PAYLOAD,LARGE,CIS,1984-06-22,TTMTR,,5177270,322300238,0 RADUGA 15,1 15057U 84063A   26126.57060007 -.00000139  00000-0  00000+0 0  9994,2 15057   8.8111 312.0831 0001905 230.3870 329.3086  1.00165527140682,15057,S15057,-,15057,1984-063A,P,P,Raduga,1984 Jun 22,S15693,VVKOV,SU,1984 Jun 22 0657?,In Earth orbit,-,2026 May  5 ,    1437.617 ,   35808, ,   35824, ,  8.81 , ,GEO/ID,15057
